[
  {
    "COMMENT": "GENERATED VIA SPACETRACK.ORG API",
    "ORIGINATOR": "18 SPCS",
    "NORAD_CAT_ID": "54754",
    "OBJECT_NAME": "SWOT",
    "OBJECT_TYPE": "PAYLOAD",
    "CLASSIFICATION_TYPE": "U",
    "INTLDES": "22173A",
    "EPOCH": "2023-06-09 11:03:43",
    "EPOCH_MICROSECONDS": "577856",
    "MEAN_MOTION": "14.09853947",
    "ECCENTRICITY": "0.000087",
    "INCLINATION": "77.609",
    "RA_OF_ASC_NODE": "85.9439",
    "ARG_OF_PERICENTER": "182.7766",
    "MEAN_ANOMALY": "177.3386",
    "EPHEMERIS_TYPE": "0",
    "ELEMENT_SET_NO": "999",
    "REV_AT_EPOCH": "2465",
    "BSTAR": "0.00013275",
    "MEAN_MOTION_DOT": "0.00000231",
    "MEAN_MOTION_DDOT": "0",
    "FILE": "3928876",
    "TLE_LINE0": "0 SWOT",
    "TLE_LINE1": "1 54754U 22173A   23160.46092104  .00000231  00000-0  13275-3 0  9995",
    "TLE_LINE2": "2 54754  77.6090  85.9439 0000870 182.7766 177.3386 14.09853947 24658",
    "OBJECT_ID": "2022-173A",
    "OBJECT_NUMBER": "54754",
    "SEMIMAJOR_AXIS": "7238.009",
    "PERIOD": "102.138",
    "APOGEE": "860.503",
    "PERIGEE": "859.244",
    "DECAYED": "0"
  },
  {
    "COMMENT": "GENERATED VIA SPACETRACK.ORG API",
    "ORIGINATOR": "18 SPCS",
    "NORAD_CAT_ID": "54754",
    "OBJECT_NAME": "SWOT",
    "OBJECT_TYPE": "PAYLOAD",
    "CLASSIFICATION_TYPE": "U",
    "INTLDES": "22173A",
    "EPOCH": "2023-06-09 17:52:28",
    "EPOCH_MICROSECONDS": "661088",
    "MEAN_MOTION": "14.09854098",
    "ECCENTRICITY": "0.0000873",
    "INCLINATION": "77.609",
    "RA_OF_ASC_NODE": "85.5546",
    "ARG_OF_PERICENTER": "182.2451",
    "MEAN_ANOMALY": "177.8702",
    "EPHEMERIS_TYPE": "0",
    "ELEMENT_SET_NO": "999",
    "REV_AT_EPOCH": "2469",
    "BSTAR": "0.00013463",
    "MEAN_MOTION_DOT": "0.00000234",
    "MEAN_MOTION_DDOT": "0",
    "FILE": "3929068",
    "TLE_LINE0": "0 SWOT",
    "TLE_LINE1": "1 54754U 22173A   23160.74477617  .00000234  00000-0  13463-3 0  9994",
    "TLE_LINE2": "2 54754  77.6090  85.5546 0000873 182.2451 177.8702 14.09854098 24691",
    "OBJECT_ID": "2022-173A",
    "OBJECT_NUMBER": "54754",
    "SEMIMAJOR_AXIS": "7238.008",
    "PERIOD": "102.138",
    "APOGEE": "860.505",
    "PERIGEE": "859.241",
    "DECAYED": "0"
  },
  {
    "COMMENT": "GENERATED VIA SPACETRACK.ORG API",
    "ORIGINATOR": "18 SPCS",
    "NORAD_CAT_ID": "54754",
    "OBJECT_NAME": "SWOT",
    "OBJECT_TYPE": "PAYLOAD",
    "CLASSIFICATION_TYPE": "U",
    "INTLDES": "22173A",
    "EPOCH": "2023-06-09 19:34:39",
    "EPOCH_MICROSECONDS": "930816",
    "MEAN_MOTION": "14.09854117",
    "ECCENTRICITY": "0.0000873",
    "INCLINATION": "77.6091",
    "RA_OF_ASC_NODE": "85.4572",
    "ARG_OF_PERICENTER": "182.0178",
    "MEAN_ANOMALY": "178.0976",
    "EPHEMERIS_TYPE": "0",
    "ELEMENT_SET_NO": "999",
    "REV_AT_EPOCH": "2470",
    "BSTAR": "0.00013087",
    "MEAN_MOTION_DOT": "0.00000227",
    "MEAN_MOTION_DDOT": "0",
    "FILE": "3929125",
    "TLE_LINE0": "0 SWOT",
    "TLE_LINE1": "1 54754U 22173A   23160.81573994  .00000227  00000-0  13087-3 0  9991",
    "TLE_LINE2": "2 54754  77.6091  85.4572 0000873 182.0178 178.0976 14.09854117 24704",
    "OBJECT_ID": "2022-173A",
    "OBJECT_NUMBER": "54754",
    "SEMIMAJOR_AXIS": "7238.008",
    "PERIOD": "102.138",
    "APOGEE": "860.505",
    "PERIGEE": "859.241",
    "DECAYED": "0"
  },
  {
    "COMMENT": "GENERATED VIA SPACETRACK.ORG API",
    "ORIGINATOR": "18 SPCS",
    "NORAD_CAT_ID": "54754",
    "OBJECT_NAME": "SWOT",
    "OBJECT_TYPE": "PAYLOAD",
    "CLASSIFICATION_TYPE": "U",
    "INTLDES": "22173A",
    "EPOCH": "2023-06-10 12:36:32",
    "EPOCH_MICROSECONDS": "623776",
    "MEAN_MOTION": "14.09854446",
    "ECCENTRICITY": "0.0000858",
    "INCLINATION": "77.6092",
    "RA_OF_ASC_NODE": "84.4837",
    "ARG_OF_PERICENTER": "181.651",
    "MEAN_ANOMALY": "178.4644",
    "EPHEMERIS_TYPE": "0",
    "ELEMENT_SET_NO": "999",
    "REV_AT_EPOCH": "2480",
    "BSTAR": "0.00013084",
    "MEAN_MOTION_DOT": "0.00000227",
    "MEAN_MOTION_DDOT": "0",
    "FILE": "3929709",
    "TLE_LINE0": "0 SWOT",
    "TLE_LINE1": "1 54754U 22173A   23161.52537759  .00000227  00000-0  13084-3 0  9996",
    "TLE_LINE2": "2 54754  77.6092  84.4837 0000858 181.6510 178.4644 14.09854446 24808",
    "OBJECT_ID": "2022-173A",
    "OBJECT_NUMBER": "54754",
    "SEMIMAJOR_AXIS": "7238.007",
    "PERIOD": "102.138",
    "APOGEE": "860.493",
    "PERIGEE": "859.251",
    "DECAYED": "0"
  },
  {
    "COMMENT": "GENERATED VIA SPACETRACK.ORG API",
    "ORIGINATOR": "18 SPCS",
    "NORAD_CAT_ID": "54754",
    "OBJECT_NAME": "SWOT",
    "OBJECT_TYPE": "PAYLOAD",
    "CLASSIFICATION_TYPE": "U",
    "INTLDES": "22173A",
    "EPOCH": "2023-06-10 19:25:17",
    "EPOCH_MICROSECONDS": "694048",
    "MEAN_MOTION": "14.09854611",
    "ECCENTRICITY": "0.0000855",
    "INCLINATION": "77.6092",
    "RA_OF_ASC_NODE": "84.0944",
    "ARG_OF_PERICENTER": "181.4192",
    "MEAN_ANOMALY": "178.6963",
    "EPHEMERIS_TYPE": "0",
    "ELEMENT_SET_NO": "999",
    "REV_AT_EPOCH": "2484",
    "BSTAR": "0.00013233",
    "MEAN_MOTION_DOT": "0.0000023",
    "MEAN_MOTION_DDOT": "0",
    "FILE": "3929932",
    "TLE_LINE0": "0 SWOT",
    "TLE_LINE1": "1 54754U 22173A   23161.80923257  .00000230  00000-0  13233-3 0  9999",
    "TLE_LINE2": "2 54754  77.6092  84.0944 0000855 181.4192 178.6963 14.09854611 24848",
    "OBJECT_ID": "2022-173A",
    "OBJECT_NUMBER": "54754",
    "SEMIMAJOR_AXIS": "7238.006",
    "PERIOD": "102.138",
    "APOGEE": "860.490",
    "PERIGEE": "859.252",
    "DECAYED": "0"
  },
  {
    "COMMENT": "GENERATED VIA SPACETRACK.ORG API",
    "ORIGINATOR": "18 SPCS",
    "NORAD_CAT_ID": "54754",
    "OBJECT_NAME": "SWOT",
    "OBJECT_TYPE": "PAYLOAD",
    "CLASSIFICATION_TYPE": "U",
    "INTLDES": "22173A",
    "EPOCH": "2023-06-10 21:07:28",
    "EPOCH_MICROSECONDS": "961184",
    "MEAN_MOTION": "14.09854644",
    "ECCENTRICITY": "0.0000851",
    "INCLINATION": "77.6092",
    "RA_OF_ASC_NODE": "83.997",
    "ARG_OF_PERICENTER": "181.4791",
    "MEAN_ANOMALY": "178.6364",
    "EPHEMERIS_TYPE": "0",
    "ELEMENT_SET_NO": "999",
    "REV_AT_EPOCH": "2485",
    "BSTAR": "0.0001317",
    "MEAN_MOTION_DOT": "0.00000229",
    "MEAN_MOTION_DDOT": "0",
    "FILE": "3929969",
    "TLE_LINE0": "0 SWOT",
    "TLE_LINE1": "1 54754U 22173A   23161.88019631  .00000229  00000-0  13170-3 0  9997",
    "TLE_LINE2": "2 54754  77.6092  83.9970 0000851 181.4791 178.6364 14.09854644 24858",
    "OBJECT_ID": "2022-173A",
    "OBJECT_NUMBER": "54754",
    "SEMIMAJOR_AXIS": "7238.006",
    "PERIOD": "102.138",
    "APOGEE": "860.487",
    "PERIGEE": "859.255",
    "DECAYED": "0"
  },
  {
    "COMMENT": "GENERATED VIA SPACETRACK.ORG API",
    "ORIGINATOR": "18 SPCS",
    "NORAD_CAT_ID": "54754",
    "OBJECT_NAME": "SWOT",
    "OBJECT_TYPE": "PAYLOAD",
    "CLASSIFICATION_TYPE": "U",
    "INTLDES": "22173A",
    "EPOCH": "2023-06-11 12:27:10",
    "EPOCH_MICROSECONDS": "362816",
    "MEAN_MOTION": "14.09854998",
    "ECCENTRICITY": "0.0000847",
    "INCLINATION": "77.6093",
    "RA_OF_ASC_NODE": "83.1208",
    "ARG_OF_PERICENTER": "181.0153",
    "MEAN_ANOMALY": "179.1002",
    "EPHEMERIS_TYPE": "0",
    "ELEMENT_SET_NO": "999",
    "REV_AT_EPOCH": "2494",
    "BSTAR": "0.00013846",
    "MEAN_MOTION_DOT": "0.00000241",
    "MEAN_MOTION_DDOT": "0",
    "FILE": "3930529",
    "TLE_LINE0": "0 SWOT",
    "TLE_LINE1": "1 54754U 22173A   23162.51886994  .00000241  00000-0  13846-3 0  9996",
    "TLE_LINE2": "2 54754  77.6093  83.1208 0000847 181.0153 179.1002 14.09854998 24945",
    "OBJECT_ID": "2022-173A",
    "OBJECT_NUMBER": "54754",
    "SEMIMAJOR_AXIS": "7238.005",
    "PERIOD": "102.138",
    "APOGEE": "860.483",
    "PERIGEE": "859.257",
    "DECAYED": "0"
  },
  {
    "COMMENT": "GENERATED VIA SPACETRACK.ORG API",
    "ORIGINATOR": "18 SPCS",
    "NORAD_CAT_ID": "54754",
    "OBJECT_NAME": "SWOT",
    "OBJECT_TYPE": "PAYLOAD",
    "CLASSIFICATION_TYPE": "U",
    "INTLDES": "22173A",
    "EPOCH": "2023-06-11 20:58:06",
    "EPOCH_MICROSECONDS": "689856",
    "MEAN_MOTION": "14.0985517",
    "ECCENTRICITY": "0.000084",
    "INCLINATION": "77.6094",
    "RA_OF_ASC_NODE": "82.6341",
    "ARG_OF_PERICENTER": "180.7438",
    "MEAN_ANOMALY": "179.3718",
    "EPHEMERIS_TYPE": "0",
    "ELEMENT_SET_NO": "999",
    "REV_AT_EPOCH": "2499",
    "BSTAR": "0.00013478",
    "MEAN_MOTION_DOT": "0.00000234",
    "MEAN_MOTION_DDOT": "0",
    "FILE": "3930737",
    "TLE_LINE0": "0 SWOT",
    "TLE_LINE1": "1 54754U 22173A   23162.87368854  .00000234  00000-0  13478-3 0  9998",
    "TLE_LINE2": "2 54754  77.6094  82.6341 0000840 180.7438 179.3718 14.09855170 24997",
    "OBJECT_ID": "2022-173A",
    "OBJECT_NUMBER": "54754",
    "SEMIMAJOR_AXIS": "7238.004",
    "PERIOD": "102.138",
    "APOGEE": "860.477",
    "PERIGEE": "859.261",
    "DECAYED": "0"
  },
  {
    "COMMENT": "GENERATED VIA SPACETRACK.ORG API",
    "ORIGINATOR": "18 SPCS",
    "NORAD_CAT_ID": "54754",
    "OBJECT_NAME": "SWOT",
    "OBJECT_TYPE": "PAYLOAD",
    "CLASSIFICATION_TYPE": "U",
    "INTLDES": "22173A",
    "EPOCH": "2023-06-12 03:46:51",
    "EPOCH_MICROSECONDS": "754080",
    "MEAN_MOTION": "14.09855281",
    "ECCENTRICITY": "0.0000837",
    "INCLINATION": "77.6094",
    "RA_OF_ASC_NODE": "82.2447",
    "ARG_OF_PERICENTER": "180.7052",
    "MEAN_ANOMALY": "179.4104",
    "EPHEMERIS_TYPE": "0",
    "ELEMENT_SET_NO": "999",
    "REV_AT_EPOCH": "2503",
    "BSTAR": "0.00013421",
    "MEAN_MOTION_DOT": "0.00000233",
    "MEAN_MOTION_DDOT": "0",
    "FILE": "3931020",
    "TLE_LINE0": "0 SWOT",
    "TLE_LINE1": "1 54754U 22173A   23163.15754345  .00000233  00000-0  13421-3 0  9991",
    "TLE_LINE2": "2 54754  77.6094  82.2447 0000837 180.7052 179.4104 14.09855281 25037",
    "OBJECT_ID": "2022-173A",
    "OBJECT_NUMBER": "54754",
    "SEMIMAJOR_AXIS": "7238.004",
    "PERIOD": "102.138",
    "APOGEE": "860.475",
    "PERIGEE": "859.263",
    "DECAYED": "0"
  }
]